CCSDS_OMM_VERS                     =2.0                      
COMMENT                            =GENERATED VIA SPACE-TRACK.ORG API
CREATION_DATE                      =2018-06-22T05:39:08      
ORIGINATOR                         =18 SPCS                  
OBJECT_NAME                        =ARASE (ERG)              
OBJECT_ID                          =2016-080A                
CENTER_NAME                        =EARTH                    
REF_FRAME                          =TEME                     
TIME_SYSTEM                        =UTC                      
MEAN_ELEMENT_THEORY                =SGP4                     
EPOCH                              =2018-06-21T18:31:48.099936
MEAN_MOTION                        =2.53665052               
ECCENTRICITY                       =0.70098360               
INCLINATION                        =31.6314                  
RA_OF_ASC_NODE                     =74.8690                  
ARG_OF_PERICENTER                  =85.9140                  
MEAN_ANOMALY                       =344.4443                 
EPHEMERIS_TYPE                     =0                        
CLASSIFICATION_TYPE                =U                        
NORAD_CAT_ID                       =41896                    
ELEMENT_SET_NO                     =999                      
REV_AT_EPOCH                       =1390                     
BSTAR                              =0.00057573000000         
MEAN_MOTION_DOT                    =0.00000253               
MEAN_MOTION_DDOT                   =0.0000000000000          
USER_DEFINED_SEMIMAJOR_AXIS        =22710.572                
USER_DEFINED_PERIOD                =567.677                  
USER_DEFINED_APOAPSIS              =32252.176                
USER_DEFINED_PERIAPSIS             =412.698                  
USER_DEFINED_OBJECT_TYPE           =PAYLOAD                  
USER_DEFINED_RCS_SIZE              =LARGE                    
USER_DEFINED_COUNTRY_CODE          =JPN                      
USER_DEFINED_LAUNCH_DATE           =2016-12-20               
USER_DEFINED_SITE                  =KSCUT                    
USER_DEFINED_DECAY_DATE            =                         
USER_DEFINED_FILE                  =2299570                  
USER_DEFINED_GP_ID                 =121222056                

CCSDS_OMM_VERS                     =2.0                      
COMMENT                            =GENERATED VIA SPACE-TRACK.ORG API
CREATION_DATE                      =2018-06-22T22:25:26      
ORIGINATOR                         =18 SPCS                  
OBJECT_NAME                        =ARASE (ERG)              
OBJECT_ID                          =2016-080A                
CENTER_NAME                        =EARTH                    
REF_FRAME                          =TEME                     
TIME_SYSTEM                        =UTC                      
MEAN_ELEMENT_THEORY                =SGP4                     
EPOCH                              =2018-06-22T03:59:21.337152
MEAN_MOTION                        =2.53665253               
ECCENTRICITY                       =0.70099320               
INCLINATION                        =31.6315                  
RA_OF_ASC_NODE                     =74.7157                  
ARG_OF_PERICENTER                  =86.1490                  
MEAN_ANOMALY                       =344.3651                 
EPHEMERIS_TYPE                     =0                        
CLASSIFICATION_TYPE                =U                        
NORAD_CAT_ID                       =41896                    
ELEMENT_SET_NO                     =999                      
REV_AT_EPOCH                       =1391                     
BSTAR                              =0.00057055000000         
MEAN_MOTION_DOT                    =0.00000251               
MEAN_MOTION_DDOT                   =0.0000000000000          
USER_DEFINED_SEMIMAJOR_AXIS        =22710.560                
USER_DEFINED_PERIOD                =567.677                  
USER_DEFINED_APOAPSIS              =32252.374                
USER_DEFINED_PERIAPSIS             =412.477                  
USER_DEFINED_OBJECT_TYPE           =PAYLOAD                  
USER_DEFINED_RCS_SIZE              =LARGE                    
USER_DEFINED_COUNTRY_CODE          =JPN                      
USER_DEFINED_LAUNCH_DATE           =2016-12-20               
USER_DEFINED_SITE                  =KSCUT                    
USER_DEFINED_DECAY_DATE            =                         
USER_DEFINED_FILE                  =2299832                  
USER_DEFINED_GP_ID                 =121238834                

CCSDS_OMM_VERS                     =2.0                      
COMMENT                            =GENERATED VIA SPACE-TRACK.ORG API
CREATION_DATE                      =2018-06-24T05:26:01      
ORIGINATOR                         =18 SPCS                  
OBJECT_NAME                        =ARASE (ERG)              
OBJECT_ID                          =2016-080A                
CENTER_NAME                        =EARTH                    
REF_FRAME                          =TEME                     
TIME_SYSTEM                        =UTC                      
MEAN_ELEMENT_THEORY                =SGP4                     
EPOCH                              =2018-06-23T08:22:00.386976
MEAN_MOTION                        =2.53665839               
ECCENTRICITY                       =0.70101600               
INCLINATION                        =31.6319                  
RA_OF_ASC_NODE                     =74.2548                  
ARG_OF_PERICENTER                  =86.8555                  
MEAN_ANOMALY                       =344.1213                 
EPHEMERIS_TYPE                     =0                        
CLASSIFICATION_TYPE                =U                        
NORAD_CAT_ID                       =41896                    
ELEMENT_SET_NO                     =999                      
REV_AT_EPOCH                       =1396                     
BSTAR                              =0.00054388000000         
MEAN_MOTION_DOT                    =0.00000213               
MEAN_MOTION_DDOT                   =0.0000000000000          
USER_DEFINED_SEMIMAJOR_AXIS        =22710.525                
USER_DEFINED_PERIOD                =567.675                  
USER_DEFINED_APOAPSIS              =32252.832                
USER_DEFINED_PERIAPSIS             =411.948                  
USER_DEFINED_OBJECT_TYPE           =PAYLOAD                  
USER_DEFINED_RCS_SIZE              =LARGE                    
USER_DEFINED_COUNTRY_CODE          =JPN                      
USER_DEFINED_LAUNCH_DATE           =2016-12-20               
USER_DEFINED_SITE                  =KSCUT                    
USER_DEFINED_DECAY_DATE            =                         
USER_DEFINED_FILE                  =2300238                  
USER_DEFINED_GP_ID                 =121275101                

CCSDS_OMM_VERS                     =2.0                      
COMMENT                            =GENERATED VIA SPACE-TRACK.ORG API
CREATION_DATE                      =2018-06-25T21:41:04      
ORIGINATOR                         =18 SPCS                  
OBJECT_NAME                        =ARASE (ERG)              
OBJECT_ID                          =2016-080A                
CENTER_NAME                        =EARTH                    
REF_FRAME                          =TEME                     
TIME_SYSTEM                        =UTC                      
MEAN_ELEMENT_THEORY                =SGP4                     
EPOCH                              =2018-06-25T07:39:44.193600
MEAN_MOTION                        =2.53666741               
ECCENTRICITY                       =0.70105330               
INCLINATION                        =31.6326                  
RA_OF_ASC_NODE                     =73.4862                  
ARG_OF_PERICENTER                  =88.0334                  
MEAN_ANOMALY                       =343.7064                 
EPHEMERIS_TYPE                     =0                        
CLASSIFICATION_TYPE                =U                        
NORAD_CAT_ID                       =41896                    
ELEMENT_SET_NO                     =999                      
REV_AT_EPOCH                       =1399                     
BSTAR                              =0.00051300000000         
MEAN_MOTION_DOT                    =0.00000078               
MEAN_MOTION_DDOT                   =0.0000000000000          
USER_DEFINED_SEMIMAJOR_AXIS        =22710.471                
USER_DEFINED_PERIOD                =567.673                  
USER_DEFINED_APOAPSIS              =32253.587                
USER_DEFINED_PERIAPSIS             =411.085                  
USER_DEFINED_OBJECT_TYPE           =PAYLOAD                  
USER_DEFINED_RCS_SIZE              =LARGE                    
USER_DEFINED_COUNTRY_CODE          =JPN                      
USER_DEFINED_LAUNCH_DATE           =2016-12-20               
USER_DEFINED_SITE                  =KSCUT                    
USER_DEFINED_DECAY_DATE            =                         
USER_DEFINED_FILE                  =2300933                  
USER_DEFINED_GP_ID                 =121320195                

